[
    {
        "Altitude(m)": 704669.5549377583,
        "Argument of Periapsis(deg)": 0.0,
        "Eccentricity": 0.0,
        "Inclination(deg)": 45.0,
        "Latitude(deg)": 32.418637628129495,
        "Longitude(deg)": 4.203558975631667,
        "Mean Anomaly(deg)": 49.09089999999999,
        "RAAN(deg)": 65.0,
        "Satellite Name": "Constellation 1 289",
        "Satellite Number": 289,
        "Semi-Major Axis(m)": 7083131.272910544,
        "Time(s)": 0
    },
    {
        "Altitude(m)": 704675.5046733745,
        "Argument of Periapsis(deg)": 5.994800624540561e-05,
        "Eccentricity": 0.0,
        "Inclination(deg)": 45.0,
        "Latitude(deg)": 32.45204369675212,
        "Longitude(deg)": 4.259517937001927,
        "Mean Anomaly(deg)": 49.151601140249895,
        "RAAN(deg)": 64.99994341083442,
        "Satellite Name": "Constellation 1 289",
        "Satellite Number": 289,
        "Semi-Major Axis(m)": 7083131.272910544,
        "Time(s)": 1
    },
    {
        "Altitude(m)": 704681.4559266886,
        "Argument of Periapsis(deg)": 0.00011989601249081122,
        "Eccentricity": 0.0,
        "Inclination(deg)": 45.0,
        "Latitude(deg)": 32.48542092428412,
        "Longitude(deg)": 4.31552119497447,
        "Mean Anomaly(deg)": 49.2123022804998,
        "RAAN(deg)": 64.99988682166887,
        "Satellite Name": "Constellation 1 289",
        "Satellite Number": 289,
        "Semi-Major Axis(m)": 7083131.272910544,
        "Time(s)": 2
    },
    {
        "Altitude(m)": 704687.4086585267,
        "Argument of Periapsis(deg)": 0.00017984401873621686,
        "Eccentricity": 0.0,
        "Inclination(deg)": 45.0,
        "Latitude(deg)": 32.51876925307465,
        "Longitude(deg)": 4.371568801020218,
        "Mean Anomaly(deg)": 49.27300342074969,
        "RAAN(deg)": 64.9998302325033,
        "Satellite Name": "Constellation 1 289",
        "Satellite Number": 289,
        "Semi-Major Axis(m)": 7083131.272910544,
        "Time(s)": 3
    },
    {
        "Altitude(m)": 704693.362829705,
        "Argument of Periapsis(deg)": 0.00023979202498162244,
        "Eccentricity": 0.0,
        "Inclination(deg)": 45.0,
        "Latitude(deg)": 32.55208862540045,
        "Longitude(deg)": 4.427660806493424,
        "Mean Anomaly(deg)": 49.33370456099958,
        "RAAN(deg)": 64.99977364333772,
        "Satellite Name": "Constellation 1 289",
        "Satellite Number": 289,
        "Semi-Major Axis(m)": 7083131.272910544,
        "Time(s)": 4
    },
    {
        "Altitude(m)": 704699.3184010696,
        "Argument of Periapsis(deg)": 0.00029974003122702807,
        "Eccentricity": 0.0,
        "Inclination(deg)": 45.0,
        "Latitude(deg)": 32.58537898346603,
        "Longitude(deg)": 4.483797262630667,
        "Mean Anomaly(deg)": 49.394405701249504,
        "RAAN(deg)": 64.99971705417215,
        "Satellite Name": "Constellation 1 289",
        "Satellite Number": 289,
        "Semi-Major Axis(m)": 7083131.272910544,
        "Time(s)": 5
    },
    {
        "Altitude(m)": 704705.2753334644,
        "Argument of Periapsis(deg)": 0.00035968803747243373,
        "Eccentricity": 0.0,
        "Inclination(deg)": 45.0,
        "Latitude(deg)": 32.61864026940355,
        "Longitude(deg)": 4.539978220549884,
        "Mean Anomaly(deg)": 49.45510684149939,
        "RAAN(deg)": 64.99966046500658,
        "Satellite Name": "Constellation 1 289",
        "Satellite Number": 289,
        "Semi-Major Axis(m)": 7083131.272910544,
        "Time(s)": 6
    },
    {
        "Altitude(m)": 704711.2335877401,
        "Argument of Periapsis(deg)": 0.00041963604371783933,
        "Eccentricity": 0.0,
        "Inclination(deg)": 45.0,
        "Latitude(deg)": 32.651872425272664,
        "Longitude(deg)": 4.596203563152515,
        "Mean Anomaly(deg)": 49.51580798174929,
        "RAAN(deg)": 64.99960387584102,
        "Satellite Name": "Constellation 1 289",
        "Satellite Number": 289,
        "Semi-Major Axis(m)": 7083131.272910544,
        "Time(s)": 7
    },
    {
        "Altitude(m)": 704717.193124767,
        "Argument of Periapsis(deg)": 0.0004795840499632449,
        "Eccentricity": 0.0,
        "Inclination(deg)": 45.0,
        "Latitude(deg)": 32.68507539306182,
        "Longitude(deg)": 4.6524736775104145,
        "Mean Anomaly(deg)": 49.576509121999194,
        "RAAN(deg)": 64.99954728667545,
        "Satellite Name": "Constellation 1 289",
        "Satellite Number": 289,
        "Semi-Major Axis(m)": 7083131.272910544,
        "Time(s)": 8
    },
    {
        "Altitude(m)": 704723.1539054158,
        "Argument of Periapsis(deg)": 0.0005395320562086505,
        "Eccentricity": 0.0,
        "Inclination(deg)": 45.0,
        "Latitude(deg)": 32.71824911468646,
        "Longitude(deg)": 4.708788446283015,
        "Mean Anomaly(deg)": 49.63721026224909,
        "RAAN(deg)": 64.99949069750988,
        "Satellite Name": "Constellation 1 289",
        "Satellite Number": 289,
        "Semi-Major Axis(m)": 7083131.272910544,
        "Time(s)": 9
    },
    {
        "Altitude(m)": 704729.1158905732,
        "Argument of Periapsis(deg)": 0.0005994800624540561,
        "Eccentricity": 0.0,
        "Inclination(deg)": 45.0,
        "Latitude(deg)": 32.7513935319902,
        "Longitude(deg)": 4.765147920104291,
        "Mean Anomaly(deg)": 49.69791140249899,
        "RAAN(deg)": 64.9994341083443,
        "Satellite Name": "Constellation 1 289",
        "Satellite Number": 289,
        "Semi-Major Axis(m)": 7083131.272910544,
        "Time(s)": 10
    },
    {
        "Altitude(m)": 704735.079041142,
        "Argument of Periapsis(deg)": 0.0006594280686994618,
        "Eccentricity": 0.0,
        "Inclination(deg)": 45.0,
        "Latitude(deg)": 32.78450858674471,
        "Longitude(deg)": 4.82155214948481,
        "Mean Anomaly(deg)": 49.75861254274888,
        "RAAN(deg)": 64.99937751917874,
        "Satellite Name": "Constellation 1 289",
        "Satellite Number": 289,
        "Semi-Major Axis(m)": 7083131.272910544,
        "Time(s)": 11
    },
    {
        "Altitude(m)": 704741.0433180181,
        "Argument of Periapsis(deg)": 0.0007193760749448675,
        "Eccentricity": 0.0,
        "Inclination(deg)": 45.0,
        "Latitude(deg)": 32.817594220649745,
        "Longitude(deg)": 4.878001184810818,
        "Mean Anomaly(deg)": 49.8193136829988,
        "RAAN(deg)": 64.99932093001317,
        "Satellite Name": "Constellation 1 289",
        "Satellite Number": 289,
        "Semi-Major Axis(m)": 7083131.272910544,
        "Time(s)": 12
    },
    {
        "Altitude(m)": 704747.0086821258,
        "Argument of Periapsis(deg)": 0.000779324081190273,
        "Eccentricity": 0.0,
        "Inclination(deg)": 45.0,
        "Latitude(deg)": 32.85065037533313,
        "Longitude(deg)": 4.934495076343088,
        "Mean Anomaly(deg)": 49.88001482324867,
        "RAAN(deg)": 64.99926434084759,
        "Satellite Name": "Constellation 1 289",
        "Satellite Number": 289,
        "Semi-Major Axis(m)": 7083131.272910544,
        "Time(s)": 13
    },
    {
        "Altitude(m)": 704752.975094391,
        "Argument of Periapsis(deg)": 0.0008392720874356787,
        "Eccentricity": 0.0,
        "Inclination(deg)": 45.0,
        "Latitude(deg)": 32.88367699235098,
        "Longitude(deg)": 4.991033874216281,
        "Mean Anomaly(deg)": 49.9407159634986,
        "RAAN(deg)": 64.99920775168202,
        "Satellite Name": "Constellation 1 289",
        "Satellite Number": 289,
        "Semi-Major Axis(m)": 7083131.272910544,
        "Time(s)": 14
    },
    {
        "Altitude(m)": 704758.9425157527,
        "Argument of Periapsis(deg)": 0.0008992200936810842,
        "Eccentricity": 0.0,
        "Inclination(deg)": 45.0,
        "Latitude(deg)": 32.91667401318719,
        "Longitude(deg)": 5.047617460340553,
        "Mean Anomaly(deg)": 50.00141710374849,
        "RAAN(deg)": 64.99915116251647,
        "Satellite Name": "Constellation 1 289",
        "Satellite Number": 289,
        "Semi-Major Axis(m)": 7083131.272910544,
        "Time(s)": 15
    },
    {
        "Altitude(m)": 704764.9109071646,
        "Argument of Periapsis(deg)": 0.0009591680999264898,
        "Eccentricity": 0.0,
        "Inclination(deg)": 45.0,
        "Latitude(deg)": 32.94964137925509,
        "Longitude(deg)": 5.104246220788949,
        "Mean Anomaly(deg)": 50.062118243998384,
        "RAAN(deg)": 64.99909457335089,
        "Satellite Name": "Constellation 1 289",
        "Satellite Number": 289,
        "Semi-Major Axis(m)": 7083131.272910544,
        "Time(s)": 16
    },
    {
        "Altitude(m)": 704770.8802295867,
        "Argument of Periapsis(deg)": 0.0010191161061718953,
        "Eccentricity": 0.0,
        "Inclination(deg)": 45.0,
        "Latitude(deg)": 32.98257903189531,
        "Longitude(deg)": 5.160920037214155,
        "Mean Anomaly(deg)": 50.12281938424828,
        "RAAN(deg)": 64.99903798418532,
        "Satellite Name": "Constellation 1 289",
        "Satellite Number": 289,
        "Semi-Major Axis(m)": 7083131.272910544,
        "Time(s)": 17
    },
    {
        "Altitude(m)": 704776.8504439945,
        "Argument of Periapsis(deg)": 0.001079064112417301,
        "Eccentricity": 0.0,
        "Inclination(deg)": 45.0,
        "Latitude(deg)": 33.01548691237731,
        "Longitude(deg)": 5.2176389592356065,
        "Mean Anomaly(deg)": 50.183520524498185,
        "RAAN(deg)": 64.99898139501974,
        "Satellite Name": "Constellation 1 289",
        "Satellite Number": 289,
        "Semi-Major Axis(m)": 7083131.272910544,
        "Time(s)": 18
    }
]